SAUDISAT 1C (SO-50)     
1 27607U 02058C   26182.18109266  .00001037  00000+0  13940-3 0  9999
2 27607  64.5520  85.6885 0074926 259.8630  99.4018 14.83076090266538
SAUDISAT 2              
1 28371U 04025F   26181.97284925  .00000264  00000+0  70125-4 0  9996
2 28371  98.5510 182.3111 0023479 253.6810 106.1805 14.56691575167754
SAUDISAT 3              
1 31118U 07012B   26182.13110916  .00000274  00000+0  52346-4 0  9991
2 31118  98.1461 132.5412 0014594 177.8647 182.2625 14.71433406 29792
PISAT                   
1 41784U 16059B   26181.97139426  .00001019  00000+0  18071-3 0  9994
2 41784  97.8181 181.8319 0029555 158.6922 201.5522 14.69007441521764
FLYING LAPTOP           
1 42831U 17042G   26182.18323547  .00002802  00000+0  22183-3 0  9994
2 42831  97.4748 337.1825 0020000  76.9523 283.3933 15.01232383488551
SALSAT                  
1 46495U 20068K   26182.01155141  .00009542  00000+0  33118-3 0  9999
2 46495  97.8843 185.9193 0007968 248.9011 111.1377 15.29994176317476
